CCSDS_OMM_VERS,COMMENT,CREATION_DATE,ORIGINATOR,OBJECT_NAME,OBJECT_ID,CENTER_NAME,REF_FRAME,TIME_SYSTEM,MEAN_ELEMENT_THEORY,EPOCH,MEAN_MOTION,ECCENTRICITY,INCLINATION,RA_OF_ASC_NODE,ARG_OF_PERICENTER,MEAN_ANOMALY,EPHEMERIS_TYPE,CLASSIFICATION_TYPE,NORAD_CAT_ID,ELEMENT_SET_NO,REV_AT_EPOCH,BSTAR,MEAN_MOTION_DOT,MEAN_MOTION_DDOT,SEMIMAJOR_AXIS,PERIOD,APOAPSIS,PERIAPSIS,OBJECT_TYPE,RCS_SIZE,COUNTRY_CODE,LAUNCH_DATE,SITE,DECAY_DATE,FILE,GP_ID,TLE_LINE0,TLE_LINE1,TLE_LINE2
"2.0","GENERATED VIA SPACE-TRACK.ORG API","2012-10-03T09:28:30","18 SPCS","BLITS","2009-049G","EARTH","TEME","UTC","SGP4","2012-10-03T14:22:38.016768","14.21588883","0.00045580","98.6337","328.8513","93.1522","267.0171","0","U","35871","999","15736","-0.00013618000000","-0.00000342","0.0000000000000","7198.125","101.295","823.271","816.710","PAYLOAD","SMALL","CIS","2009-09-17","TTMTR","","1361010","90867889","0 BLITS","1 35871U 09049G   12277.59905112 -.00000342  00000-0 -13618-3 0  9990","2 35871 098.6337 328.8513 0004558 093.1522 267.0171 14.21588883157360"
"2.0","GENERATED VIA SPACE-TRACK.ORG API","2012-10-03T16:52:58","18 SPCS","BLITS","2009-049G","EARTH","TEME","UTC","SGP4","2012-10-03T17:45:20.320991","14.21588800","0.00045830","98.6336","328.9888","93.3693","266.8011","0","U","35871","999","15738","-0.00013608000000","-0.00000341","0.0000000000000","7198.126","101.295","823.290","816.692","PAYLOAD","SMALL","CIS","2009-09-17","TTMTR","","1361477","90870063","0 BLITS","1 35871U 09049G   12277.73981853 -.00000341  00000-0 -13608-3 0  9990","2 35871 098.6336 328.9888 0004583 093.3693 266.8011 14.21588800157385"
"2.0","GENERATED VIA SPACE-TRACK.ORG API","2012-10-04T00:43:30","18 SPCS","BLITS","2009-049G","EARTH","TEME","UTC","SGP4","2012-10-04T02:12:06.049151","14.21587864","0.00046220","98.6336","329.3331","92.0978","268.0713","0","U","35871","999","15743","-0.00027296000000","-0.00000641","0.0000000000000","7198.129","101.295","823.321","816.667","PAYLOAD","SMALL","CIS","2009-09-17","TTMTR","","1361628","90872715","0 BLITS","1 35871U 09049G   12278.09173668 -.00000641  00000-0 -27296-3 0  9998","2 35871 098.6336 329.3331 0004622 092.0978 268.0713 14.21587864157437"
"2.0","GENERATED VIA SPACE-TRACK.ORG API","2012-10-04T14:48:43","18 SPCS","BLITS","2009-049G","EARTH","TEME","UTC","SGP4","2012-10-04T14:01:34.136831","14.21589622","0.00045940","98.6350","329.8143","87.5242","272.6502","0","U","35871","999","15750","0.00003290100000","0.00000029","0.0000000000000","7198.123","101.295","823.295","816.681","PAYLOAD","SMALL","CIS","2009-09-17","TTMTR","","1361973","90885576","0 BLITS","1 35871U 09049G   12278.58442288  .00000029  00000-0  32901-4 0  9997","2 35871 098.6350 329.8143 0004594 087.5242 272.6502 14.21589622157509"
"2.0","GENERATED VIA SPACE-TRACK.ORG API","2012-10-05T00:40:01","18 SPCS","BLITS","2009-049G","EARTH","TEME","UTC","SGP4","2012-10-05T03:32:23.194751","14.21589525","0.00046180","98.6351","330.3655","86.5038","273.6646","0","U","35871","999","15758","0.00002666600000","0.00000015","0.0000000000000","7198.123","101.295","823.312","816.664","PAYLOAD","SMALL","CIS","2009-09-17","TTMTR","","1362372","90889513","0 BLITS","1 35871U 09049G   12279.14749068  .00000015  00000-0  26666-4 0  9992","2 35871 098.6351 330.3655 0004618 086.5038 273.6646 14.21589525157584"
"2.0","GENERATED VIA SPACE-TRACK.ORG API","2012-10-05T17:04:55","18 SPCS","BLITS","2009-049G","EARTH","TEME","UTC","SGP4","2012-10-05T17:03:12.365855","14.21589495","0.00045660","98.6347","330.9163","85.9968","274.1731","0","U","35871","999","15766","0.00002176000000","0.00000005","0.0000000000000","7198.123","101.295","823.275","816.702","PAYLOAD","SMALL","CIS","2009-09-17","TTMTR","","1362727","90902847","0 BLITS","1 35871U 09049G   12279.71055979  .00000005  00000-0  21760-4 0  9995","2 35871 098.6347 330.9163 0004566 085.9968 274.1731 14.21589495157662"
"2.0","GENERATED VIA SPACE-TRACK.ORG API","2012-10-06T00:40:48","18 SPCS","BLITS","2009-049G","EARTH","TEME","UTC","SGP4","2012-10-06T01:29:58.081056","14.21589501","0.00045830","98.6351","331.2607","83.7069","276.4622","0","U","35871","999","15771","0.00002131800000","0.00000004","0.0000000000000","7198.123","101.295","823.287","816.689","PAYLOAD","SMALL","CIS","2009-09-17","TTMTR","","1362868","90905669","0 BLITS","1 35871U 09049G   12280.06247779  .00000004  00000-0  21318-4 0  9994","2 35871 098.6351 331.2607 0004583 083.7069 276.4622 14.21589501157719"
"2.0","GENERATED VIA SPACE-TRACK.ORG API","2012-10-06T16:45:05","18 SPCS","BLITS","2009-049G","EARTH","TEME","UTC","SGP4","2012-10-06T16:42:08.368416","14.21589492","0.00045750","98.6346","331.8804","82.6765","277.4926","0","U","35871","999","15780","0.00001844600000","-0.00000003","0.0000000000000","7198.123","101.295","823.282","816.695","PAYLOAD","SMALL","CIS","2009-09-17","TTMTR","","1363133","90918285","0 BLITS","1 35871U 09049G   12280.69593019 -.00000003  00000-0  18446-4 0  9992","2 35871 098.6346 331.8804 0004575 082.6765 277.4926 14.21589492157807"
"2.0","GENERATED VIA SPACE-TRACK.ORG API","2012-10-07T00:38:07","18 SPCS","BLITS","2009-049G","EARTH","TEME","UTC","SGP4","2012-10-07T01:08:54.092255","14.21589531","0.00045780","98.6346","332.2246","81.5601","278.6095","0","U","35871","999","15785","0.00001897000000","-0.00000002","0.0000000000000","7198.123","101.295","823.284","816.693","PAYLOAD","SMALL","CIS","2009-09-17","TTMTR","","1363254","90920916","0 BLITS","1 35871U 09049G   12281.04784829 -.00000002  00000-0  18970-4 0  9994","2 35871 098.6346 332.2246 0004578 081.5601 278.6095 14.21589531157851"
"2.0","GENERATED VIA SPACE-TRACK.ORG API","2012-10-07T09:05:59","18 SPCS","BLITS","2009-049G","EARTH","TEME","UTC","SGP4","2012-10-07T02:50:15.235296","14.21589688","0.00045680","98.6347","332.2940","80.8755","279.2958","0","U","35871","999","15786","0.00002301500000","0.00000007","0.0000000000000","7198.123","101.295","823.276","816.700","PAYLOAD","SMALL","CIS","2009-09-17","TTMTR","","1363418","90923854","0 BLITS","1 35871U 09049G   12281.11823189  .00000007  00000-0  23015-4 0  9995","2 35871 098.6347 332.2940 0004568 080.8755 279.2958 14.21589688157863"
"2.0","GENERATED VIA SPACE-TRACK.ORG API","2012-10-07T16:57:57","18 SPCS","BLITS","2009-049G","EARTH","TEME","UTC","SGP4","2012-10-07T16:21:04.340735","14.21589883","0.00045830","98.6340","332.8442","80.9360","279.2354","0","U","35871","999","15794","0.00002828400000","0.00000019","0.0000000000000","7198.122","101.295","823.286","816.688","PAYLOAD","SMALL","CIS","2009-09-17","TTMTR","","1363540","90934055","0 BLITS","1 35871U 09049G   12281.68130024  .00000019  00000-0  28284-4 0  9992","2 35871 098.6340 332.8442 0004583 080.9360 279.2354 14.21589883157945"
"2.0","GENERATED VIA SPACE-TRACK.ORG API","2012-10-08T01:04:01","18 SPCS","BLITS","2009-049G","EARTH","TEME","UTC","SGP4","2012-10-08T02:29:11.161824","14.21589970","0.00045910","98.6338","333.2575","79.6796","280.4906","0","U","35871","999","15800","0.00002924600000","0.00000021","0.0000000000000","7198.122","101.295","823.291","816.682","PAYLOAD","SMALL","CIS","2009-09-17","TTMTR","","1363668","90936755","0 BLITS","1 35871U 09049G   12282.10360141  .00000021  00000-0  29246-4 0  9997","2 35871 098.6338 333.2575 0004591 079.6796 280.4906 14.21589970158003"
"2.0","GENERATED VIA SPACE-TRACK.ORG API","2012-10-08T17:05:03","18 SPCS","BLITS","2009-049G","EARTH","TEME","UTC","SGP4","2012-10-08T17:41:21.431903","14.21588232","0.00045640","98.6318","333.8773","81.3324","278.8359","0","U","35871","999","15809","-0.00024627000000","-0.00000583","0.0000000000000","7198.128","101.295","823.278","816.707","PAYLOAD","SMALL","CIS","2009-09-17","TTMTR","","1363954","90949939","0 BLITS","1 35871U 09049G   12282.73705361 -.00000583  00000-0 -24627-3 0  9995","2 35871 098.6318 333.8773 0004564 081.3324 278.8359 14.21588232158096"
"2.0","GENERATED VIA SPACE-TRACK.ORG API","2012-10-09T01:05:29","18 SPCS","BLITS","2009-049G","EARTH","TEME","UTC","SGP4","2012-10-09T02:08:07.196351","14.21589992","0.00045600","98.6336","334.2215","77.9368","282.2362","0","U","35871","999","15814","0.00002641500000","0.00000015","0.0000000000000","7198.122","101.295","823.269","816.704","PAYLOAD","SMALL","CIS","2009-09-17","TTMTR","","1364081","90952627","0 BLITS","1 35871U 09049G   12283.08897218  .00000015  00000-0  26415-4 0  9993","2 35871 098.6336 334.2215 0004560 077.9368 282.2362 14.21589992158140"
"2.0","GENERATED VIA SPACE-TRACK.ORG API","2012-10-09T08:47:15","18 SPCS","BLITS","2009-049G","EARTH","TEME","UTC","SGP4","2012-10-09T03:49:28.265952","14.21589972","0.00045620","98.6336","334.2904","77.8231","282.3455","0","U","35871","999","15815","0.00002553100000","0.00000013","0.0000000000000","7198.122","101.295","823.271","816.703","PAYLOAD","SMALL","CIS","2009-09-17","TTMTR","","1364207","90955255","0 BLITS","1 35871U 09049G   12283.15935493  .00000013  00000-0  25531-4 0  9995","2 35871 098.6336 334.2904 0004562 077.8231 282.3455 14.21589972158158"
"2.0","GENERATED VIA SPACE-TRACK.ORG API","2012-10-09T16:12:10","18 SPCS","BLITS","2009-049G","EARTH","TEME","UTC","SGP4","2012-10-09T15:38:56.251680","14.21587549","0.00045380","98.6317","334.7720","77.8933","282.2692","0","U","35871","999","15822","-0.00028090000000","-0.00000659","0.0000000000000","7198.130","101.295","823.261","816.728","PAYLOAD","SMALL","CIS","2009-09-17","TTMTR","","1364380","90964873","0 BLITS","1 35871U 09049G   12283.65203995 -.00000659  00000-0 -28090-3 0  9995","2 35871 098.6317 334.7720 0004538 077.8933 282.2692 14.21587549158228"
